0 DELTA 1 DEB
1 14493U 77065FJ  13282.47096316  .00003394  00000-0  72823-3 0  9969
2 14493 028.9570 349.1818 0647711 299.1917 184.0113 13.73075013591173
0 DELTA 1 DEB
1 14493U 77065FJ  13283.48825638  .00003244  00000-0  69511-3 0  9973
2 14493 028.9564 343.7686 0647723 307.9400 172.5616 13.73079789591317
0 DELTA 1 DEB
1 14493U 77065FJ  13285.45070166  .00003055  00000-0  65413-3 0  9988
2 14493 028.9548 333.3253 0647681 324.8168 153.1274 13.73090029591580
0 DELTA 1 DEB
1 14493U 77065FJ  13287.17951553  .00003414  00000-0  73516-3 0  9990
2 14493 028.9544 324.1264 0647649 339.6826 058.8993 13.73098973591827
0 DELTA 1 DEB
1 14493U 77065FJ  13288.19959841  .00004969  00000-0  10823-2 0    01
2 14493 028.9536 318.6973 0647607 348.4557 061.3410 13.73106432591964
0 DELTA 1 DEB
1 14493U 77065FJ  13289.37518249  .00003708  00000-0  80182-3 0    12
2 14493 028.9525 312.4382 0647601 358.5637 112.4902 13.73115832592120
0 DELTA 1 DEB
1 14493U 77065FJ  13291.18281699  .00003483  00000-0  75245-3 0    25
2 14493 028.9521 302.8183 0647574 014.1059 048.0556 13.73126521592373
0 DELTA 1 DEB
1 14493U 77065FJ  13292.35792140  .00003218  00000-0  69367-3 0    38
2 14493 028.9518 296.5634 0647579 024.2083 096.9149 13.73133302592536
0 DELTA 1 DEB
1 14493U 77065FJ  13293.37783569  .00003231  00000-0  69687-3 0    47
2 14493 028.9516 291.1349 0647558 032.9768 098.6515 13.73139077592677
0 DELTA 1 DEB
1 14493U 77065FJ  13295.18605970  .00003311  00000-0  71488-3 0    59
2 14493 028.9513 281.5108 0647558 048.5182 037.2898 13.73148350592928
0 DELTA 1 DEB
1 14493U 77065FJ  13296.20657243  .00003177  00000-0  68467-3 0    67
2 14493 028.9509 276.0780 0647620 057.2781 042.0524 13.73154344593066
